#dP2025  1 13  0  0  0.00000000      96 __u+U IGS20 FIT  IAC
## 2349  86400.00000000   900.00000000 60688 0.0000000000000
+  132   C01C02C03C04C05C06C07C08C09C10C11C12C13C14C16C19C20
+        C21C22C23C24C25C26C27C28C29C30C32C33C34C35C36C37C38
+        C39C40C41C42C43C44C45C59C60C62E02E03E04E05E06E07E08
+        E09E10E11E12E13E14E15E18E19E21E24E25E26E27E29E30E31
+        E33E34E36G01G02G03G04G05G06G07G08G09G10G11G12G13G14
+        G15G16G17G18G19G20G21G22G23G24G25G26G27G28G29G30G31
+        G32J02J03J04J07R01R02R03R04R05R06R07R08R09R10R11R12
+        R13R14R15R16R17R18R19R20R21R22R23R24R26  0  0  0  0
++        16 16  0 19 16  9 10 10  9  9  8  8  9  8  9  7  7
++         7  7  7  7  7  7  7  7  7  7  7  7  7  7  7  7  8
++         8  8  7  7  7  7  8 17 17 17  4  4  4  5  4  4  4
++         4  4  4  4  5  4  4  5  4  4  4  4  4  4  4  4  4
++         4  4  4  4  4  3  4  4  4  4  4  4  4  4  3  4  4
++         4  4  4  4  3  4  4  4  4  4  3  4  4  3  4  4  3
++         4 10  9 11  0  7  6  6  6  6 14  6  6  6 14  6  6
++        14  6  6  6  6  6  7  7  6  6 14  6  0  0  0  0  0
%c M  cc GPS ccc cccc cccc cccc cccc ccccc ccccc ccccc ccccc
%c cc cc ccc ccc cccc cccc cccc cccc ccccc ccccc ccccc ccccc
%f  0.0000000  0.000000000  0.00000000000  0.000000000000000
%f  0.0000000  0.000000000  0.00000000000  0.000000000000000
%i    0    0    0    0      0      0      0      0         0
%i    0    0    0    0      0      0      0      0         0
/* INFORMATION & ANALYSIS CENTER (IAC)            RAPID DATA
/* S/V CLOCKS ARE ALIGNED TO GNSS TIME                      
/* G:C1WC2W R:C1PC2P E:C1XC5X C:C2IC6I J:C1CC2S             
/* PCV:IGS20_2317 OL/AL:FES2004  NONE     YN ORB:CoN CLK:CoN
*  2025 01 13  6  0  0.00000000
PC01 -34325.669517  24426.016467  -1486.559673   -355.282840
PC02   4488.807483  41902.922886  -1086.724709    672.407330
PC03      0.000000      0.000000      0.000000 999999.999999
PC04 -39631.091479  14324.441934  -1613.395502   -336.454734
PC05  21940.430139  35955.254304   -312.174307   -330.740919
PC06 -18537.689220  31499.366984  20854.878531    660.230813
PC07  -5430.145544  38413.286815  16916.470999    172.167089
PC08  -2799.467237  20328.386649 -36815.806534    182.791069
PC09 -10713.250244  30178.861532  27588.420358   -918.837514
PC10    588.748149  41012.003131  11361.806139   -390.016290
PC11  17753.669733  -2428.465761 -21319.805731    334.724528
PC12   7112.178987  16656.321299 -21184.139336   -217.653958
PC13   1731.994195  22788.451004 -35194.234861     67.147595
PC14  19646.923866   7982.535799  18178.895366   -652.893552
PC16 -19567.194856  31292.305050  20369.790231    -54.609968
PC19 -16534.720207   1887.075408 -22372.798911   -963.664460
PC20 -19696.448013 -15199.019077 -12602.022410   -874.829925
PC21  11130.932207  24895.577375  -5971.008228   -905.204910
PC22  -3703.694294  19103.220421 -20015.460138    230.443167
PC23  14749.169407 -14399.131994 -18814.643670   -950.511283
PC24  23450.761781   8054.864440  12752.796149    695.422962
PC25  27050.191765  -5207.365259  -4410.410611    615.510760
PC26   6727.206289  15541.093885  22150.343214   -404.969156
PC27   -395.937609 -23122.692217  15608.399579    422.822455
PC28  11675.646751 -25283.009621   1829.617462    330.859293
PC29 -18789.604428  11806.513937  16916.292188    388.361975
PC30 -13463.336090  -9133.226850  22668.046200     78.350125
PC32 -11215.062612 -24804.330746   6121.767350   -878.231154
PC33  16619.134984  -1886.447771  22344.196059   -947.712877
PC34  14471.070524   7257.496256 -22740.827040    606.341590
PC35 -11219.351972  25509.082444  -1017.896386    155.053304
PC36 -27093.695621   4805.370623   4708.790378    251.354685
PC37  -5943.170093 -15778.453163 -22241.657584   -903.350317
PC38 -13290.588922  18690.844049 -35310.068166    202.585715
PC39 -24178.461642  31783.979840  13154.351352    -10.754587
PC40  -9523.267859  36146.688320  19810.772934   -114.339545
PC41   4542.623279 -18393.409473  20536.518124   -882.595854
PC42  19527.170961  16698.401445  10973.949819   -565.478255
PC43  18893.245394 -10986.074512 -17376.183029     98.209919
PC44   1355.431603  23177.720224 -15473.192184    709.597287
PC45 -15439.067426  14015.736810  18544.881809   -208.884803
PC59 -32293.985963  27059.983568  -1757.368744     -0.328717
PC60   7319.575446  41471.414721  -1774.543232      0.706407
PC62 -39602.325776  14465.364259   1118.236906      0.227638
PE02 -14442.549707  10221.649861  23720.195059    189.639627
PE03 -12473.731251  21133.096918 -16564.995216   -166.238296
PE04    439.211156 -29567.729912  -1301.596546   -131.105679
PE05 -16906.933692    450.365956 -24291.379075   4818.587130
PE06  -6118.502100 -26998.792178 -10504.314234    -69.849655
PE07  11345.987357  20856.042620  17684.424203   -163.334267
PE08   -936.706533  29583.895046    627.754143   -399.672951
PE09 -11198.922822 -20893.717159 -17720.194009   -736.134691
PE10  -4763.051308 -15465.256642  24788.769375   -682.877301
PE11 -15450.618495  -9185.289649  23513.099887   -296.958555
PE12   5179.010610 -18819.378438  22264.725944  -1384.034957
PE13  14925.460340   9485.243505 -23726.431688    -29.079365
PE14  -2880.626807 -22992.225593   3734.462209    583.105537
PE15  -6007.890834  18914.432582 -21943.018142   -150.769925
PE18   6913.452669  30429.699269  -9133.649304    992.691067
PE19  13234.473031 -19613.025803  17793.372427   1226.878820
PE21  25814.006091   5710.919110 -13314.226240   -639.886736
PE24 -22203.081768 -18873.850822  -5292.938840  -1209.402276
PE25 -25925.460485  -6111.483764  12917.362362     13.217501
PE26  26834.395673  -5584.583078 -11167.883294   -155.500583
PE27  22254.812344  18777.718592   5272.243782   -554.921272
PE29  17076.759656   -846.777238  24158.795721    -61.652870
PE30   5703.799370  20675.857814  20374.539634  -1130.615816
PE31  -5622.748485 -20600.770846 -20503.035685    -50.354696
PE33  23281.619640 -16919.249423   6931.719486     16.447008
PE34 -23032.184926  17107.346883  -7285.499410   -157.358265
PE36 -26692.607560   5240.165042  11668.070905   -338.367796
PG01  -9023.170817  18234.881003 -17065.169689     44.261369
PG02  -9509.731111  19651.925855 -14379.793719   -269.087005
PG03   2492.730314  16776.285979 -20634.210634    645.023446
PG04   -639.236206  26447.505548  -1038.936592    511.166169
PG05  12856.176905  -9693.370537  20963.174164   -198.875495
PG06  22678.529799  -3400.669119 -13438.185261   -114.841505
PG07   7634.692445  13732.574231  21943.681591    -13.558726
PG08  -6780.348308  22452.613515  11879.969941    459.812631
PG09   6790.804833  24508.523353   7450.386907    526.678820
PG10 -24393.605688 -10228.706017  -3692.455019   -274.674174
PG11  23675.638926 -11773.024147  -2101.703936   -751.818632
PG12   1749.032952 -16326.987817 -21176.431337   -564.159867
PG13  13109.016193 -15489.311997  16772.544968    693.310689
PG14  23453.137153  12742.028705   -308.322001    579.014283
PG15   3424.245493 -23649.411375  10921.035810    251.040538
PG16 -18247.465664   3845.544349  18723.701942    -79.130935
PG17  12811.536012  12851.663592 -18913.147875    476.578546
PG18  -9389.050932 -11741.037457  21939.063460   -658.042142
PG19  15059.100202   2265.840187 -21909.822673    585.587541
PG20  22347.971401  -3288.033546  13955.492531    367.113312
PG21 -14710.821880  19282.314173  -9006.282154    100.898086
PG22  23528.636170   8618.632437  -7936.413760    -92.017791
PG23 -18491.778229 -16508.477331   9894.394955    402.859603
PG24  10276.155729 -20592.865346 -13373.878063   -464.472721
PG25 -12197.208285 -18403.406377 -15313.795026    496.819945
PG26 -24489.122883  -1871.760560  10405.168338    -46.224589
PG27 -12750.416443  12744.845639  19043.818663    -33.117192
PG28 -21863.508387   2148.254672 -14945.277352   -534.083084
PG29  -4520.876633 -24874.411786   7889.005872   -547.579755
PG30  18222.080851   4971.889908  18927.770122   -240.275345
PG31 -24340.492608   8705.849282  -7120.593577   -217.992790
PG32 -14655.119811  -7791.592282 -20552.041091   -542.527795
PJ02 -27395.274519  21203.276619  29215.867478     -0.519201
PJ03 -34866.814821  23256.251682   -554.232146     -0.195356
PJ04 -18774.722914  27246.335109 -21159.566688     21.209722
PJ07      0.000000      0.000000      0.000000 999999.999999
PR01  -7025.662954  10105.768099 -22340.121907    111.068463
PR02   2816.871007  22190.729202 -12144.771858    -38.509881
PR03  11772.498726  21952.777815   5386.929162    114.845100
PR04  13500.112666   9958.887327  19239.694248    272.307461
PR05   8373.637948  -7466.169507  22924.015340    143.670366
PR06  -4656.897514 -22668.205846  10744.489366   -197.184496
PR07 -11813.197717 -21938.624220  -5550.144692     98.781050
PR08 -13642.486336  -9630.926495 -19234.919318     -6.354853
PR09   3084.793187 -11063.480697 -22765.152077    231.798364
PR10 -13468.920524 -10716.198278 -18876.112962   -270.594165
PR11 -24655.776848  -4996.625946  -4158.315708     -0.358880
PR12 -20295.508178   4580.593988  14783.127878     49.551295
PR13  -5967.914527  10249.805670  22562.289729    -55.339567
PR14  15147.459139  10444.330458  17680.683777     27.583852
PR15  25033.003853   4331.238118   2340.730620     72.244231
PR16  20396.155603  -4453.314693 -14679.735943     32.426344
PR17   3333.289967  12264.428916 -22109.706246    157.045835
PR18  14045.070496  -2178.783806 -21174.052234    181.652129
PR19  18326.490015 -13721.683132 -11241.799422   -305.340178
PR20  11567.240848 -20426.718705  10047.887355   -124.484440
PR21  -2226.229535 -13129.791740  21755.640167   -167.746722
PR22 -14961.420378   2728.094975  20505.015120    -55.697318
PR23 -17974.591114  15747.066873   8911.881670   -143.942573
PR24 -10070.398597  21027.691442 -10342.178343    -87.978469
PR26      0.000000      0.000000      0.000000 999999.999999
EOF
